[{"OBJECT_NAME":"SITRO-AIS 17","OBJECT_ID":"2024-199BG","EPOCH":"2026-03-09T22:41:43.974240","MEAN_MOTION":14.97395626,"ECCENTRICITY":0.0007298,"INCLINATION":97.3319,"RA_OF_ASC_NODE":274.6922,"ARG_OF_PERICENTER":55.1829,"MEAN_ANOMALY":305.008,"EPHEMERIS_TYPE":0,"CLASSIFICATION_TYPE":"U","NORAD_CAT_ID":61789,"ELEMENT_SET_NO":999,"REV_AT_EPOCH":11718,"BSTAR":0.00028776531,"MEAN_MOTION_DOT":3.293e-5,"MEAN_MOTION_DDOT":0},{"OBJECT_NAME":"STARLINK-34049","OBJECT_ID":"2025-102W","EPOCH":"2026-03-09T12:40:44.661216","MEAN_MOTION":14.98327398,"ECCENTRICITY":0.00034015,"INCLINATION":70.0009,"RA_OF_ASC_NODE":115.0399,"ARG_OF_PERICENTER":268.4205,"MEAN_ANOMALY":91.6564,"EPHEMERIS_TYPE":0,"CLASSIFICATION_TYPE":"U","NORAD_CAT_ID":64042,"ELEMENT_SET_NO":999,"REV_AT_EPOCH":4592,"BSTAR":0.00010151791,"MEAN_MOTION_DOT":1.118e-5,"MEAN_MOTION_DDOT":0}]
